{"fetched_at":"2026-07-10T18:08:19.167Z","source":"https://celestrak.org/NORAD/elements/gp.php?NAME=KINEIS&FORMAT=JSON","constellation":"kineis","records":[{"OBJECT_NAME":"KINEIS-2D","OBJECT_ID":"2025-028C","EPOCH":"2026-07-10T02:32:21.126912","CLASSIFICATION_TYPE":"U","MEAN_MOTION":14.75759334,"ECCENTRICITY":0.00045931,"INCLINATION":97.9274,"RA_OF_ASC_NODE":243.1098,"ARG_OF_PERICENTER":120.6248,"MEAN_ANOMALY":239.5415,"EPHEMERIS_TYPE":0,"NORAD_CAT_ID":62930,"ELEMENT_SET_NO":999,"REV_AT_EPOCH":7609,"BSTAR":0.00015913409,"MEAN_MOTION_DOT":0.0000104,"MEAN_MOTION_DDOT":0},{"OBJECT_NAME":"KINEIS-2E","OBJECT_ID":"2025-028D","EPOCH":"2026-07-10T02:56:18.140352","CLASSIFICATION_TYPE":"U","MEAN_MOTION":14.770793,"ECCENTRICITY":0.00021303,"INCLINATION":97.8943,"RA_OF_ASC_NODE":242.2668,"ARG_OF_PERICENTER":99.1106,"MEAN_ANOMALY":261.0346,"EPHEMERIS_TYPE":0,"NORAD_CAT_ID":62931,"ELEMENT_SET_NO":999,"REV_AT_EPOCH":7616,"BSTAR":0.00013736415,"MEAN_MOTION_DOT":0.0000092,"MEAN_MOTION_DDOT":0},{"OBJECT_NAME":"KINEIS-2A","OBJECT_ID":"2025-028E","EPOCH":"2026-07-10T02:47:59.697024","CLASSIFICATION_TYPE":"U","MEAN_MOTION":14.73442853,"ECCENTRICITY":0.00060604,"INCLINATION":98.129,"RA_OF_ASC_NODE":246.5373,"ARG_OF_PERICENTER":95.8756,"MEAN_ANOMALY":264.3143,"EPHEMERIS_TYPE":0,"NORAD_CAT_ID":62932,"ELEMENT_SET_NO":999,"REV_AT_EPOCH":7598,"BSTAR":0.00014074005,"MEAN_MOTION_DOT":0.00000862,"MEAN_MOTION_DDOT":0},{"OBJECT_NAME":"KINEIS-2B","OBJECT_ID":"2025-028G","EPOCH":"2026-07-10T02:15:24.018336","CLASSIFICATION_TYPE":"U","MEAN_MOTION":14.73443626,"ECCENTRICITY":0.00049907,"INCLINATION":97.9656,"RA_OF_ASC_NODE":243.5396,"ARG_OF_PERICENTER":85.2642,"MEAN_ANOMALY":274.9136,"EPHEMERIS_TYPE":0,"NORAD_CAT_ID":62934,"ELEMENT_SET_NO":999,"REV_AT_EPOCH":7603,"BSTAR":0.00013390184,"MEAN_MOTION_DOT":0.00000819,"MEAN_MOTION_DDOT":0},{"OBJECT_NAME":"KINEIS-4E","OBJECT_ID":"2025-056A","EPOCH":"2026-07-10T06:55:11.474400","CLASSIFICATION_TYPE":"U","MEAN_MOTION":14.72294445,"ECCENTRICITY":0.00030421,"INCLINATION":97.9064,"RA_OF_ASC_NODE":314.5454,"ARG_OF_PERICENTER":93.831,"MEAN_ANOMALY":266.3245,"EPHEMERIS_TYPE":0,"NORAD_CAT_ID":63300,"ELEMENT_SET_NO":999,"REV_AT_EPOCH":7052,"BSTAR":0.0001597204,"MEAN_MOTION_DOT":0.00000961,"MEAN_MOTION_DDOT":0},{"OBJECT_NAME":"KINEIS-4C","OBJECT_ID":"2025-056B","EPOCH":"2026-07-10T07:13:07.290912","CLASSIFICATION_TYPE":"U","MEAN_MOTION":14.72316097,"ECCENTRICITY":0.00024399,"INCLINATION":97.9117,"RA_OF_ASC_NODE":314.8031,"ARG_OF_PERICENTER":232.448,"MEAN_ANOMALY":127.6506,"EPHEMERIS_TYPE":0,"NORAD_CAT_ID":63301,"ELEMENT_SET_NO":999,"REV_AT_EPOCH":7053,"BSTAR":0.00016335727,"MEAN_MOTION_DOT":0.00000984,"MEAN_MOTION_DDOT":0},{"OBJECT_NAME":"KINEIS-4D","OBJECT_ID":"2025-056C","EPOCH":"2026-07-10T07:18:06.850944","CLASSIFICATION_TYPE":"U","MEAN_MOTION":14.72418409,"ECCENTRICITY":0.00011821,"INCLINATION":97.9037,"RA_OF_ASC_NODE":314.7836,"ARG_OF_PERICENTER":242.9497,"MEAN_ANOMALY":117.159,"EPHEMERIS_TYPE":0,"NORAD_CAT_ID":63302,"ELEMENT_SET_NO":999,"REV_AT_EPOCH":7053,"BSTAR":0.00016110576,"MEAN_MOTION_DOT":0.00000973,"MEAN_MOTION_DDOT":0},{"OBJECT_NAME":"KINEIS-4A","OBJECT_ID":"2025-056D","EPOCH":"2026-07-10T08:08:35.170080","CLASSIFICATION_TYPE":"U","MEAN_MOTION":14.72325548,"ECCENTRICITY":0.00017189,"INCLINATION":97.9132,"RA_OF_ASC_NODE":314.7642,"ARG_OF_PERICENTER":161.7227,"MEAN_ANOMALY":198.4042,"EPHEMERIS_TYPE":0,"NORAD_CAT_ID":63303,"ELEMENT_SET_NO":999,"REV_AT_EPOCH":7053,"BSTAR":0.00015506322,"MEAN_MOTION_DOT":0.00000932,"MEAN_MOTION_DDOT":0},{"OBJECT_NAME":"KINEIS-4B","OBJECT_ID":"2025-056E","EPOCH":"2026-07-10T07:43:40.882080","CLASSIFICATION_TYPE":"U","MEAN_MOTION":14.72319971,"ECCENTRICITY":0.00048861,"INCLINATION":97.9143,"RA_OF_ASC_NODE":314.8041,"ARG_OF_PERICENTER":209.4009,"MEAN_ANOMALY":150.6924,"EPHEMERIS_TYPE":0,"NORAD_CAT_ID":63304,"ELEMENT_SET_NO":999,"REV_AT_EPOCH":7052,"BSTAR":0.00015458947,"MEAN_MOTION_DOT":0.00000929,"MEAN_MOTION_DDOT":0}]}
