KINEIS-2D               
1 62930U 25028C   26191.10580008  .00001040  00000+0  15913-3 0  9994
2 62930  97.9274 243.1098 0004593 120.6248 239.5415 14.75759334 76090
KINEIS-2E               
1 62931U 25028D   26191.12243218  .00000920  00000+0  13736-3 0  9993
2 62931  97.8943 242.2668 0002130  99.1106 261.0346 14.77079300 76165
KINEIS-2A               
1 62932U 25028E   26191.11666316  .00000862  00000+0  14074-3 0  9992
2 62932  98.1290 246.5373 0006060  95.8756 264.3143 14.73442853 75988
KINEIS-2B               
1 62934U 25028G   26191.09402799  .00000819  00000+0  13390-3 0  9996
2 62934  97.9656 243.5396 0004990  85.2642 274.9136 14.73443626 76037
KINEIS-4E               
1 63300U 25056A   26191.28832725  .00000961  00000+0  15972-3 0  9998
2 63300  97.9064 314.5454 0003042  93.8310 266.3245 14.72294445 70522
KINEIS-4C               
1 63301U 25056B   26191.30077883  .00000984  00000+0  16336-3 0  9998
2 63301  97.9117 314.8031 0002439 232.4480 127.6506 14.72316097 70532
KINEIS-4D               
1 63302U 25056C   26191.30424596  .00000973  00000+0  16111-3 0  9995
2 63302  97.9037 314.7836 0001182 242.9497 117.1590 14.72418409 70531
KINEIS-4A               
1 63303U 25056D   26191.33929595  .00000932  00000+0  15506-3 0  9990
2 63303  97.9132 314.7642 0001718 161.7227 198.4042 14.72325548 70532
KINEIS-4B               
1 63304U 25056E   26191.32200095  .00000929  00000+0  15459-3 0  9990
2 63304  97.9143 314.8041 0004886 209.4009 150.6924 14.72319971 70527
